IRIDIUM 112             
1 41925U 17003J   23328.88655966  .00000565  00000+0  19459-3 0  9999
2 41925  86.3944 119.2186 0001897  89.0422 271.0992 14.34220437359215
IRIDIUM 111             
1 41926U 17003K   23328.87386358  .00000562  00000+0  19362-3 0  9995
2 41926  86.3947 119.2740 0002049  99.2401 260.9026 14.34222110359197
IRIDIUM 113             
1 42803U 17039A   23328.57475681  .00000499  00000+0  17100-3 0  9991
2 42803  86.3981 353.1511 0001947  94.8823 265.2595 14.34218642337088
IRIDIUM 123             
1 42804U 17039B   23328.68600780  .00000472  00000+0  16150-3 0  9999
2 42804  86.3999  24.5929 0001993  96.7068 263.4355 14.34219052335867
IRIDIUM 120             
1 42805U 17039C   23328.56841194  .00000528  00000+0  18148-3 0  9994
2 42805  86.3970 353.0579 0002167  95.3817 264.7627 14.34219818337070
IRIDIUM 115             
1 42806U 17039D   23328.56822072  .00000677  00000+0  19531-3 0  9991
2 42806  86.4507 353.0522 0002023 103.4200 256.7227 14.43289038339311
IRIDIUM 118             
1 42807U 17039E   23328.71771049  .00000401  00000+0  13603-3 0  9995
2 42807  86.3997  24.5814 0002097  93.0915 267.0520 14.34215030335864
IRIDIUM 117             
1 42808U 17039F   23328.66697970  .00000470  00000+0  16076-3 0  9993
2 42808  86.3998  24.5690 0002128  96.0655 264.0783 14.34218997335882
